{"fetched_at":"2026-05-03T06:27:58Z","count":17151,"tles":[{"name":"KUIPER-00512","line1":"1 68889U 26095AB  26122.41670139  .00069154  00000+0  18551-2 0  9991","line2":"2 68889  51.8777 103.7015 0005537 114.7214  33.5747 15.37313156  1772","category":"Other"}]}