{
  "norad_id": 68889,
  "name": "KUIPER-00512",
  "history": [
    {
      "epoch": "2026-05-02T10:00:03.000096Z",
      "apogee_km": 457.8413891202845,
      "perigee_km": 450.2754159315273,
      "latitude_deg": 24.46388675664363,
      "longitude_deg": -107.44215345422155,
      "height_km": 451.6870006789192,
      "semi_major_axis_km": 6832.195402525906,
      "eccentricity": 0.0005537,
      "inclination_deg": 51.8777,
      "raan_deg": 103.7015,
      "arg_perigee_deg": 114.7214,
      "mean_anomaly_deg": 33.5747,
      "mean_motion_rev_day": 15.37313156
    }
  ]
}